CCSDS_OMM_VERS = 2.0
CREATION_DATE  = 
ORIGINATOR     = 

OBJECT_NAME    = IDEFIX & ARIANE 42P R/B
OBJECT_ID      = 2002-021B
CENTER_NAME    = EARTH
REF_FRAME      = TEME
TIME_SYSTEM    = UTC
MEAN_ELEMENT_THEORY = SGP/SGP4

EPOCH          = 2026-02-05T21:24:10.793376
MEAN_MOTION    = 14.31002794
ECCENTRICITY   = .001072
INCLINATION    = 98.5839
RA_OF_ASC_NODE = 335.8848
ARG_OF_PERICENTER = 283.2526
MEAN_ANOMALY   = 76.7461

EPHEMERIS_TYPE = 0
CLASSIFICATION_TYPE = U
NORAD_CAT_ID   = 27422
ELEMENT_SET_NO = 999
REV_AT_EPOCH   = 23947
BSTAR          = .1819E-3
MEAN_MOTION_DOT = .435E-5
MEAN_MOTION_DDOT = 0

CCSDS_OMM_VERS = 2.0
CREATION_DATE  = 
ORIGINATOR     = 

OBJECT_NAME    = AQUA
OBJECT_ID      = 2002-022A
CENTER_NAME    = EARTH
REF_FRAME      = TEME
TIME_SYSTEM    = UTC
MEAN_ELEMENT_THEORY = SGP/SGP4

EPOCH          = 2026-02-06T11:35:09.480768
MEAN_MOTION    = 14.61898568
ECCENTRICITY   = .0001588
INCLINATION    = 98.4120
RA_OF_ASC_NODE = 4.2935
ARG_OF_PERICENTER = 54.8121
MEAN_ANOMALY   = 49.1124

EPHEMERIS_TYPE = 0
CLASSIFICATION_TYPE = U
NORAD_CAT_ID   = 27424
ELEMENT_SET_NO = 999
REV_AT_EPOCH   = 26417
BSTAR          = .31468E-3
MEAN_MOTION_DOT = .1525E-4
MEAN_MOTION_DDOT = 0

CCSDS_OMM_VERS = 2.0
CREATION_DATE  = 
ORIGINATOR     = 

OBJECT_NAME    = CZ-4B R/B
OBJECT_ID      = 2002-024C
CENTER_NAME    = EARTH
REF_FRAME      = TEME
TIME_SYSTEM    = UTC
MEAN_ELEMENT_THEORY = SGP/SGP4

EPOCH          = 2026-02-06T02:16:52.772736
MEAN_MOTION    = 14.14541952
ECCENTRICITY   = .00511179
INCLINATION    = 98.8907
RA_OF_ASC_NODE = 90.6503
ARG_OF_PERICENTER = 112.4504
MEAN_ANOMALY   = 278.0191

EPHEMERIS_TYPE = 0
CLASSIFICATION_TYPE = U
NORAD_CAT_ID   = 27432
ELEMENT_SET_NO = 999
REV_AT_EPOCH   = 22477
BSTAR          = .54294886E-4
MEAN_MOTION_DOT = .61E-6
MEAN_MOTION_DDOT = 0

CCSDS_OMM_VERS = 2.0
CREATION_DATE  = 
ORIGINATOR     = 

OBJECT_NAME    = MIDORI II (ADEOS-II)
OBJECT_ID      = 2002-056A
CENTER_NAME    = EARTH
REF_FRAME      = TEME
TIME_SYSTEM    = UTC
MEAN_ELEMENT_THEORY = SGP/SGP4

EPOCH          = 2026-02-06T12:16:17.200416
MEAN_MOTION    = 14.29261081
ECCENTRICITY   = .0002158
INCLINATION    = 98.7716
RA_OF_ASC_NODE = 355.7851
ARG_OF_PERICENTER = 86.6875
MEAN_ANOMALY   = 273.4553

EPHEMERIS_TYPE = 0
CLASSIFICATION_TYPE = U
NORAD_CAT_ID   = 27597
ELEMENT_SET_NO = 999
REV_AT_EPOCH   = 20584
BSTAR          = .20716E-3
MEAN_MOTION_DOT = .481E-5
MEAN_MOTION_DDOT = 0

CCSDS_OMM_VERS = 2.0
CREATION_DATE  = 
ORIGINATOR     = 

OBJECT_NAME    = H-2A R/B
OBJECT_ID      = 2002-056E
CENTER_NAME    = EARTH
REF_FRAME      = TEME
TIME_SYSTEM    = UTC
MEAN_ELEMENT_THEORY = SGP/SGP4

EPOCH          = 2026-02-06T12:31:51.103200
MEAN_MOTION    = 14.33738209
ECCENTRICITY   = .0069013
INCLINATION    = 98.3147
RA_OF_ASC_NODE = 359.0852
ARG_OF_PERICENTER = 254.3260
MEAN_ANOMALY   = 217.3076

EPHEMERIS_TYPE = 0
CLASSIFICATION_TYPE = U
NORAD_CAT_ID   = 27601
ELEMENT_SET_NO = 999
REV_AT_EPOCH   = 20964
BSTAR          = .17686E-3
MEAN_MOTION_DOT = .462E-5
MEAN_MOTION_DDOT = 0

CCSDS_OMM_VERS = 2.0
CREATION_DATE  = 
ORIGINATOR     = 

OBJECT_NAME    = CZ-4B R/B
OBJECT_ID      = 2003-049C
CENTER_NAME    = EARTH
REF_FRAME      = TEME
TIME_SYSTEM    = UTC
MEAN_ELEMENT_THEORY = SGP/SGP4

EPOCH          = 2026-02-06T12:09:22.805280
MEAN_MOTION    = 14.54985398
ECCENTRICITY   = .004758
INCLINATION    = 98.6845
RA_OF_ASC_NODE = 31.1967
ARG_OF_PERICENTER = 328.1477
MEAN_ANOMALY   = 31.6843

EPHEMERIS_TYPE = 0
CLASSIFICATION_TYPE = U
NORAD_CAT_ID   = 28059
ELEMENT_SET_NO = 999
REV_AT_EPOCH   = 18206
BSTAR          = .17339E-3
MEAN_MOTION_DOT = .706E-5
MEAN_MOTION_DDOT = 0

CCSDS_OMM_VERS = 2.0
CREATION_DATE  = 
ORIGINATOR     = 

OBJECT_NAME    = CZ-2C R/B
OBJECT_ID      = 2004-012C
CENTER_NAME    = EARTH
REF_FRAME      = TEME
TIME_SYSTEM    = UTC
MEAN_ELEMENT_THEORY = SGP/SGP4

EPOCH          = 2026-02-06T02:28:03.889056
MEAN_MOTION    = 15.60941550
ECCENTRICITY   = .00162227
INCLINATION    = 97.7308
RA_OF_ASC_NODE = 99.4830
ARG_OF_PERICENTER = 69.4345
MEAN_ANOMALY   = 290.8650

EPHEMERIS_TYPE = 0
CLASSIFICATION_TYPE = U
NORAD_CAT_ID   = 28222
ELEMENT_SET_NO = 999
REV_AT_EPOCH   = 19934
BSTAR          = .71809666E-3
MEAN_MOTION_DOT = .6073E-3
MEAN_MOTION_DDOT = 0

CCSDS_OMM_VERS = 2.0
CREATION_DATE  = 
ORIGINATOR     = 

OBJECT_NAME    = SL-16 R/B
OBJECT_ID      = 2004-021B
CENTER_NAME    = EARTH
REF_FRAME      = TEME
TIME_SYSTEM    = UTC
MEAN_ELEMENT_THEORY = SGP/SGP4

EPOCH          = 2026-02-06T03:09:05.604768
MEAN_MOTION    = 14.14589375
ECCENTRICITY   = .00028573
INCLINATION    = 71.0004
RA_OF_ASC_NODE = 298.7234
ARG_OF_PERICENTER = 88.7524
MEAN_ANOMALY   = 271.3926

EPHEMERIS_TYPE = 0
CLASSIFICATION_TYPE = U
NORAD_CAT_ID   = 28353
ELEMENT_SET_NO = 999
REV_AT_EPOCH   = 11837
BSTAR          = .39421774E-4
MEAN_MOTION_DOT = .28E-6
MEAN_MOTION_DDOT = 0

CCSDS_OMM_VERS = 2.0
CREATION_DATE  = 
ORIGINATOR     = 

OBJECT_NAME    = CZ-4B R/B
OBJECT_ID      = 2004-035C
CENTER_NAME    = EARTH
REF_FRAME      = TEME
TIME_SYSTEM    = UTC
MEAN_ELEMENT_THEORY = SGP/SGP4

EPOCH          = 2026-02-06T00:47:21.047136
MEAN_MOTION    = 15.28475627
ECCENTRICITY   = .00342506
INCLINATION    = 97.3547
RA_OF_ASC_NODE = 71.6611
ARG_OF_PERICENTER = 81.7311
MEAN_ANOMALY   = 278.7810

EPHEMERIS_TYPE = 0
CLASSIFICATION_TYPE = U
NORAD_CAT_ID   = 28415
ELEMENT_SET_NO = 999
REV_AT_EPOCH   = 17507
BSTAR          = .45460757E-3
MEAN_MOTION_DOT = .12754E-3
MEAN_MOTION_DDOT = 0

CCSDS_OMM_VERS = 2.0
CREATION_DATE  = 
ORIGINATOR     = 

OBJECT_NAME    = CZ-2C R/B
OBJECT_ID      = 2004-046B
CENTER_NAME    = EARTH
REF_FRAME      = TEME
TIME_SYSTEM    = UTC
MEAN_ELEMENT_THEORY = SGP/SGP4

EPOCH          = 2026-02-06T05:05:57.595488
MEAN_MOTION    = 14.26980783
ECCENTRICITY   = .0138231
INCLINATION    = 98.1997
RA_OF_ASC_NODE = 314.1511
ARG_OF_PERICENTER = 247.8260
MEAN_ANOMALY   = 110.8205

EPHEMERIS_TYPE = 0
CLASSIFICATION_TYPE = U
NORAD_CAT_ID   = 28480
ELEMENT_SET_NO = 999
REV_AT_EPOCH   = 10401
BSTAR          = .98092E-4
MEAN_MOTION_DOT = .222E-5
MEAN_MOTION_DDOT = 0

CCSDS_OMM_VERS = 2.0
CREATION_DATE  = 
ORIGINATOR     = 

OBJECT_NAME    = ARIANE 5 R/B
OBJECT_ID      = 2004-049H
CENTER_NAME    = EARTH
REF_FRAME      = TEME
TIME_SYSTEM    = UTC
MEAN_ELEMENT_THEORY = SGP/SGP4

EPOCH          = 2026-02-06T10:34:12.637920
MEAN_MOTION    = 14.85200840
ECCENTRICITY   = .0085495
INCLINATION    = 98.2576
RA_OF_ASC_NODE = 204.7394
ARG_OF_PERICENTER = 92.3626
MEAN_ANOMALY   = 268.7380

EPHEMERIS_TYPE = 0
CLASSIFICATION_TYPE = U
NORAD_CAT_ID   = 28499
ELEMENT_SET_NO = 999
REV_AT_EPOCH   = 14115
BSTAR          = .16666E-3
MEAN_MOTION_DOT = .1461E-4
MEAN_MOTION_DDOT = 0

CCSDS_OMM_VERS = 2.0
CREATION_DATE  = 
ORIGINATOR     = 

OBJECT_NAME    = CZ-2D R/B
OBJECT_ID      = 2005-024B
CENTER_NAME    = EARTH
REF_FRAME      = TEME
TIME_SYSTEM    = UTC
MEAN_ELEMENT_THEORY = SGP/SGP4

EPOCH          = 2026-02-06T12:13:05.705184
MEAN_MOTION    = 15.57427037
ECCENTRICITY   = .0007291
INCLINATION    = 97.3619
RA_OF_ASC_NODE = 51.5785
ARG_OF_PERICENTER = 121.9361
MEAN_ANOMALY   = 238.2604

EPHEMERIS_TYPE = 0
CLASSIFICATION_TYPE = U
NORAD_CAT_ID   = 28738
ELEMENT_SET_NO = 999
REV_AT_EPOCH   = 13492
BSTAR          = .61699E-3
MEAN_MOTION_DOT = .45365E-3
MEAN_MOTION_DDOT = 0

