IDEFIX & ARIANE 42P R/B 
1 27422U 02021B   26036.89179159  .00000435  00000+0  18190-3 0  9991
2 27422  98.5839 335.8848 0010720 283.2526  76.7461 14.31002794239475
AQUA                    
1 27424U 02022A   26037.48274862  .00001525  00000+0  31468-3 0  9991
2 27424  98.4120   4.2935 0001588  54.8121  49.1124 14.61898568264178
CZ-4B R/B               
1 27432U 02024C   26037.09505524  .00000061  00000+0  54295-4 0  9999
2 27432  98.8907  90.6503 0051117 112.4504 278.0191 14.14541952224772
MIDORI II (ADEOS-II)    
1 27597U 02056A   26037.51131019  .00000481  00000+0  20716-3 0  9993
2 27597  98.7716 355.7851 0002158  86.6875 273.4553 14.29261081205842
H-2A R/B                
1 27601U 02056E   26037.52211925  .00000462  00000+0  17686-3 0  9996
2 27601  98.3147 359.0852 0069013 254.3260 217.3076 14.33738209209640
CZ-4B R/B               
1 28059U 03049C   26037.50651395  .00000706  00000+0  17339-3 0  9990
2 28059  98.6845  31.1967 0047580 328.1477  31.6843 14.54985398182067
CZ-2C R/B               
1 28222U 04012C   26037.10282279  .00060730  00000+0  71810-3 0  9997
2 28222  97.7308  99.4830 0016222  69.4345 290.8650 15.60941550199341
SL-16 R/B               
1 28353U 04021B   26037.13131487  .00000028  00000+0  39422-4 0  9997
2 28353  71.0004 298.7234 0002857  88.7524 271.3926 14.14589375118373
CZ-4B R/B               
1 28415U 04035C   26037.03288249  .00012754  00000+0  45461-3 0  9997
2 28415  97.3547  71.6611 0034250  81.7311 278.7810 15.28475627175074
CZ-2C R/B               
1 28480U 04046B   26037.21247217  .00000222  00000+0  98092-4 0  9997
2 28480  98.1997 314.1511 0138231 247.8260 110.8205 14.26980783104011
ARIANE 5 R/B            
1 28499U 04049H   26037.44042405  .00001461  00000+0  16666-3 0  9999
2 28499  98.2576 204.7394 0085495  92.3626 268.7380 14.85200840141157
CZ-2D R/B               
1 28738U 05024B   26037.50909381  .00045365  00000+0  61699-3 0  9998
2 28738  97.3619  51.5785 0007291 121.9361 238.2604 15.57427037134923
